[{"OBJECT_NAME":"MANDRAKE 2 ABLE","OBJECT_ID":"2021-059AE","EPOCH":"2026-03-09T11:47:46.014720","MEAN_MOTION":15.50735817,"ECCENTRICITY":0.00047846,"INCLINATION":97.704,"RA_OF_ASC_NODE":250.976,"ARG_OF_PERICENTER":6.4336,"MEAN_ANOMALY":353.6976,"EPHEMERIS_TYPE":0,"CLASSIFICATION_TYPE":"U","NORAD_CAT_ID":48907,"ELEMENT_SET_NO":999,"REV_AT_EPOCH":26165,"BSTAR":0.00043383769,"MEAN_MOTION_DOT":0.00024904,"MEAN_MOTION_DDOT":0},{"OBJECT_NAME":"PSLV R\/B","OBJECT_ID":"2019-089L","EPOCH":"2026-03-09T10:22:50.417472","MEAN_MOTION":15.47110778,"ECCENTRICITY":0.00206225,"INCLINATION":36.9706,"RA_OF_ASC_NODE":336.8775,"ARG_OF_PERICENTER":323.7669,"MEAN_ANOMALY":36.1691,"EPHEMERIS_TYPE":0,"CLASSIFICATION_TYPE":"U","NORAD_CAT_ID":44862,"ELEMENT_SET_NO":999,"REV_AT_EPOCH":34624,"BSTAR":0.00055946454,"MEAN_MOTION_DOT":0.00029399,"MEAN_MOTION_DDOT":0}]
